[{"OBJECT_NAME":"STARLINK-5832","OBJECT_ID":"2023-088R","EPOCH":"2026-03-09T02:12:11.845728","MEAN_MOTION":15.02543422,"ECCENTRICITY":9.231e-5,"INCLINATION":43.0018,"RA_OF_ASC_NODE":110.3825,"ARG_OF_PERICENTER":248.4688,"MEAN_ANOMALY":111.6056,"EPHEMERIS_TYPE":0,"CLASSIFICATION_TYPE":"U","NORAD_CAT_ID":57063,"ELEMENT_SET_NO":999,"REV_AT_EPOCH":15028,"BSTAR":-0.00015286252,"MEAN_MOTION_DOT":-2.268e-5,"MEAN_MOTION_DDOT":0},{"OBJECT_NAME":"LEMUR-2-SQUIRRELCOMM","OBJECT_ID":"2024-149DQ","EPOCH":"2026-03-09T21:26:31.466400","MEAN_MOTION":15.05887962,"ECCENTRICITY":0.00061012,"INCLINATION":97.6754,"RA_OF_ASC_NODE":150.1976,"ARG_OF_PERICENTER":42.3481,"MEAN_ANOMALY":317.8216,"EPHEMERIS_TYPE":0,"CLASSIFICATION_TYPE":"U","NORAD_CAT_ID":60578,"ELEMENT_SET_NO":999,"REV_AT_EPOCH":8545,"BSTAR":0.00060830109,"MEAN_MOTION_DOT":8.786e-5,"MEAN_MOTION_DDOT":0}]
